NORAD_CAT_ID,OBJECT_NAME,OBJECT_TYPE,EPOCH,MEAN_MOTION,ECCENTRICITY,INCLINATION,RA_OF_ASC_NODE,ARG_OF_PERICENTER,MEAN_ANOMALY,BSTAR,MEAN_MOTION_DOT,MEAN_MOTION_DDOT,TLE_LINE0,TLE_LINE1,TLE_LINE2,SEMIMAJOR_AXIS,PERIOD,APOGEE,PERIGEE,DECAYED
52334.0,STARLINK-3880,PAYLOAD,2023-11-26 08:24:11,15.08859391,0.000176,53.218,354.6136,95.639,264.4803,0.00039656,6.032e-05,0.0,0 STARLINK-3880,1 52334U 22045D   23330.35013457  .00006032  00000-0  39656-3 0  9992,2 52334  53.2180 354.6136 0001760  95.6390 264.4803 15.08859391 89678,6917.821,95.436,540.904,538.469,0.0
52334.0,STARLINK-3880,PAYLOAD,2023-11-27 01:53:27,15.08825379,0.000201,53.2187,351.3497,91.2538,268.8684,-0.00027287,-4.627e-05,0.0,0 STARLINK-3880,1 52334U 22045D   23331.07879126 -.00004627  00000-0 -27287-3 0  9992,2 52334  53.2187 351.3497 0002010  91.2538 268.8684 15.08825379 89780,6917.925,95.438,541.181,538.4,0.0
52334.0,STARLINK-3880,PAYLOAD,2023-11-27 08:15:00,15.0880823,0.0001782,53.2183,350.1558,91.3726,268.747,-0.00053148,-8.729e-05,0.0,0 STARLINK-3880,1 52334U 22045D   23331.34375986 -.00008729  00000-0 -53148-3 0  9999,2 52334  53.2183 350.1558 0001782  91.3726 268.7470 15.08808230 89820,6917.977,95.44,541.075,538.61,0.0
52334.0,STARLINK-3880,PAYLOAD,2023-11-27 22:33:28,15.08826716,0.0001628,53.2191,347.4804,77.9354,282.1821,-2.7869e-05,-7.31e-06,0.0,0 STARLINK-3880,1 52334U 22045D   23331.93991828 -.00000731  00000-0 -27869-4 0  9990,2 52334  53.2191 347.4804 0001628  77.9354 282.1821 15.08826716 89917,6917.921,95.438,540.912,538.66,0.0
52334.0,STARLINK-3880,PAYLOAD,2023-11-28 11:16:32,15.08861128,0.0001761,53.2185,345.1003,92.7128,267.4066,0.00039021,5.931e-05,0.0,0 STARLINK-3880,1 52334U 22045D   23332.46982155  .00005931  00000-0  39021-3 0  9999,2 52334  53.2185 345.1003 0001761  92.7128 267.4066 15.08861128 89999,6917.816,95.436,540.899,538.463,0.0
52334.0,STARLINK-3880,PAYLOAD,2023-11-28 23:59:39,15.08830731,0.0001755,53.2186,342.7239,91.8486,268.2707,0.0004025,6.122e-05,0.0,0 STARLINK-3880,1 52334U 22045D   23332.99976182  .00006122  00000-0  40250-3 0  9999,2 52334  53.2186 342.7239 0001755  91.8486 268.2707 15.08830731 90072,6917.909,95.438,540.988,538.56,0.0
52334.0,STARLINK-3880,PAYLOAD,2023-11-29 06:21:11,15.08844419,0.0001971,53.217,341.5331,102.5294,257.5919,0.00049353,7.576e-05,0.0,0 STARLINK-3880,1 52334U 22045D   23333.26471645  .00007576  00000-0  49353-3 0  9991,2 52334  53.2170 341.5331 0001971 102.5294 257.5919 15.08844419 90111,6917.867,95.437,541.095,538.368,0.0
52334.0,STARLINK-3880,PAYLOAD,2023-11-30 09:22:44,15.0885274,0.0001987,53.2181,336.4811,86.9461,273.1759,8.5126e-06,-1.53e-06,0.0,0 STARLINK-3880,1 52334U 22045D   23334.39078806 -.00000153  00000-0  85126-5 0  9993,2 52334  53.2181 336.4811 0001987  86.9461 273.1759 15.08852740 90287,6917.841,95.437,541.081,538.332,0.0
52334.0,STARLINK-3880,PAYLOAD,2023-12-01 04:27:22,15.08836346,0.0002532,53.217,332.9106,134.2787,225.8413,-5.0844e-05,-1.097e-05,0.0,0 STARLINK-3880,1 52334U 22045D   23335.18567399 -.00001097  00000-0 -50844-4 0  9998,2 52334  53.2170 332.9106 0002532 134.2787 225.8413 15.08836346 90407,6917.892,95.438,541.508,538.005,0.0
52334.0,STARLINK-3880,PAYLOAD,2023-12-01 09:13:31,15.08846884,0.000194,53.218,332.0187,106.9929,253.1275,7.7935e-05,9.53e-06,0.0,0 STARLINK-3880,1 52334U 22045D   23335.38439269  .00000953  00000-0  77935-4 0  9992,2 52334  53.2180 332.0187 0001940 106.9929 253.1275 15.08846884 90435,6917.859,95.437,541.066,538.382,0.0
52334.0,STARLINK-3880,PAYLOAD,2023-12-02 05:53:33,15.08841402,0.0002479,53.219,328.1545,75.2416,284.8851,0.00013354,1.838e-05,0.0,0 STARLINK-3880,1 52334U 22045D   23336.24552294  .00001838  00000-0  13354-3 0  9999,2 52334  53.2190 328.1545 0002479  75.2416 284.8851 15.08841402 90563,6917.876,95.437,541.456,538.026,0.0
52334.0,STARLINK-3880,PAYLOAD,2023-12-03 04:08:58,15.08828455,0.0003286,53.2195,323.9951,44.8457,315.28,0.00010503,1.383e-05,0.0,0 STARLINK-3880,1 52334U 22045D   23337.17290003  .00001383  00000-0  10503-3 0  9997,2 52334  53.2195 323.9951 0003286  44.8457 315.2800 15.08828455 90708,6917.916,95.438,542.054,537.507,0.0
52334.0,STARLINK-3880,PAYLOAD,2023-12-03 08:55:07,15.08830281,0.0001894,53.2178,323.0942,91.9186,268.2023,6.5272e-05,7.51e-06,0.0,0 STARLINK-3880,1 52334U 22045D   23337.37161268  .00000751  00000-0  65272-4 0  9991,2 52334  53.2178 323.0942 0001894  91.9186 268.2023 15.08830281 90732,6917.91,95.438,541.085,538.465,0.0
52334.0,STARLINK-3880,PAYLOAD,2023-12-04 03:59:44,15.08849778,0.0002313,53.2199,319.5334,66.5121,293.6114,0.00010032,1.309e-05,0.0,0 STARLINK-3880,1 52334U 22045D   23338.16648388  .00001309  00000-0  10032-3 0  9995,2 52334  53.2199 319.5334 0002313  66.5121 293.6114 15.08849778 90851,6917.851,95.437,541.316,538.115,0.0
52334.0,STARLINK-3880,PAYLOAD,2023-12-05 08:36:40,15.08845578,0.0002297,53.22,314.1746,92.2791,267.8464,0.00020282,2.942e-05,0.0,0 STARLINK-3880,1 52334U 22045D   23339.35879931  .00002942  00000-0  20282-3 0  9999,2 52334  53.2200 314.1746 0002297  92.2791 267.8464 15.08845578 91038,6917.863,95.437,541.317,538.139,0.0
52334.0,STARLINK-3880,PAYLOAD,2023-12-06 03:41:18,15.08843948,0.0002111,53.2183,310.6032,97.5208,262.6024,-1.9264e-05,-5.95e-06,0.0,0 STARLINK-3880,1 52334U 22045D   23340.15368213 -.00000595  00000-0 -19264-4 0  9998,2 52334  53.2183 310.6032 0002111  97.5208 262.6024 15.08843948 91150,6917.868,95.437,541.194,538.273,0.0
52334.0,STARLINK-3880,PAYLOAD,2023-12-06 21:10:33,15.08835969,0.0002085,53.2177,307.3342,105.0396,255.0827,-5.8808e-05,-1.224e-05,0.0,0 STARLINK-3880,1 52334U 22045D   23340.88232732 -.00001224  00000-0 -58808-4 0  9991,2 52334  53.2177 307.3342 0002085 105.0396 255.0827 15.08835969 91266,6917.893,95.438,541.2,538.315,0.0
52334.0,STARLINK-3880,PAYLOAD,2023-12-07 05:07:28,15.08837775,0.0002008,53.2179,305.8496,104.3442,255.7773,-2.892e-05,-7.48e-06,0.0,0 STARLINK-3880,1 52334U 22045D   23341.21352485 -.00000748  00000-0 -28920-4 0  9999,2 52334  53.2179 305.8496 0002008 104.3442 255.7773 15.08837775 91310,6917.887,95.438,541.141,538.363,0.0
52334.0,STARLINK-3880,PAYLOAD,2023-12-08 04:58:15,15.08834607,0.0001925,53.2178,301.3905,99.4651,260.6559,0.00010686,1.413e-05,0.0,0 STARLINK-3880,1 52334U 22045D   23342.20712676  .00001413  00000-0  10686-3 0  9998,2 52334  53.2178 301.3905 0001925  99.4651 260.6559 15.08834607 91462,6917.897,95.438,541.094,538.43,0.0
52334.0,STARLINK-3880,PAYLOAD,2023-12-08 22:27:29,15.08841906,0.0001858,53.218,298.1195,95.9637,264.1567,0.00012355,1.679e-05,0.0,0 STARLINK-3880,1 52334U 22045D   23342.93576237  .00001679  00000-0  12355-3 0  9998,2 52334  53.2180 298.1195 0001858  95.9637 264.1567 15.08841906 91579,6917.875,95.437,541.025,538.454,0.0
52334.0,STARLINK-3880,PAYLOAD,2023-12-09 03:13:39,15.08845712,0.0001887,53.2179,297.2272,94.3407,265.7801,0.00015037,2.106e-05,0.0,0 STARLINK-3880,1 52334U 22045D   23343.13447935  .00002106  00000-0  15037-3 0  9999,2 52334  53.2179 297.2272 0001887  94.3407 265.7801 15.08845712 91604,6917.863,95.437,541.033,538.423,0.0
52334.0,STARLINK-3880,PAYLOAD,2023-12-09 04:49:02,15.08847804,0.0001898,53.218,296.93,93.7992,266.3218,0.00016953,2.412e-05,0.0,0 STARLINK-3880,1 52334U 22045D   23343.20071782  .00002412  00000-0  16953-3 0  9998,2 52334  53.2180 296.9300 0001898  93.7992 266.3218 15.08847804 91612,6917.857,95.437,541.035,538.409,0.0
52334.0,STARLINK-3880,PAYLOAD,2023-12-09 20:42:53,15.08843308,0.0001926,53.2183,293.9564,95.4191,264.7021,5.3071e-05,5.57e-06,0.0,0 STARLINK-3880,1 52334U 22045D   23343.86312309  .00000557  00000-0  53071-4 0  9994,2 52334  53.2183 293.9564 0001926  95.4191 264.7021 15.08843308 91716,6917.87,95.437,541.068,538.403,0.0
52334.0,STARLINK-3880,PAYLOAD,2023-12-11 02:55:13,15.08841011,0.0001858,53.2182,288.3069,98.0604,262.0599,-2.5491e-05,-6.94e-06,0.0,0 STARLINK-3880,1 52334U 22045D   23345.12168519 -.00000694  00000-0 -25491-4 0  9996,2 52334  53.2182 288.3069 0001858  98.0604 262.0599 15.08841011 91906,6917.877,95.437,541.028,538.457,0.0
52334.0,STARLINK-3880,PAYLOAD,2023-12-12 01:10:37,15.08841312,0.0001954,53.2188,284.1438,101.7625,258.3587,9.785e-05,1.27e-05,0.0,0 STARLINK-3880,1 52334U 22045D   23346.04904058  .00001270  00000-0  97850-4 0  9991,2 52334  53.2188 284.1438 0001954 101.7625 258.3587 15.08841312 92043,6917.876,95.437,541.093,538.39,0.0
52334.0,STARLINK-3880,PAYLOAD,2023-12-13 02:36:47,15.08839825,0.0001933,53.2191,279.3901,100.9903,259.1306,5.3808e-05,5.68e-06,0.0,0 STARLINK-3880,1 52334U 22045D   23347.10888523  .00000568  00000-0  53808-4 0  9991,2 52334  53.2191 279.3901 0001933 100.9903 259.1306 15.08839825 92207,6917.881,95.438,541.083,538.409,0.0
52334.0,STARLINK-3880,PAYLOAD,2023-12-14 00:52:11,15.08837914,0.0001982,53.2194,275.2274,98.4693,261.6524,2.9451e-05,1.81e-06,0.0,0 STARLINK-3880,1 52334U 22045D   23348.03624792  .00000181  00000-0  29451-4 0  9998,2 52334  53.2194 275.2274 0001982  98.4693 261.6524 15.08837914 92341,6917.887,95.438,541.123,538.381,0.0
52334.0,STARLINK-3880,PAYLOAD,2023-12-15 02:18:21,15.08846483,0.0001851,53.218,270.4639,83.3655,276.7547,0.00010921,1.451e-05,0.0,0 STARLINK-3880,1 52334U 22045D   23349.09608127  .00001451  00000-0  10921-3 0  9991,2 52334  53.2180 270.4639 0001851  83.3655 276.7547 15.08846483 92505,6917.861,95.437,541.006,538.445,0.0
52334.0,STARLINK-3880,PAYLOAD,2023-12-15 22:58:21,15.0884998,0.0001742,53.2171,266.5996,85.1247,274.9944,0.00014206,1.974e-05,0.0,0 STARLINK-3880,1 52334U 22045D   23349.95719463  .00001974  00000-0  14206-3 0  9992,2 52334  53.2171 266.5996 0001742  85.1247 274.9944 15.08849980 92633,6917.85,95.437,540.92,538.51,0.0
52334.0,STARLINK-3880,PAYLOAD,2023-12-16 02:09:09,15.08830449,0.0001524,53.2173,266.0039,100.28,259.8364,-4.3041e-05,-9.73e-06,0.0,0 STARLINK-3880,1 52334U 22045D   23350.08968915 -.00000973  00000-0 -43041-4 0  9996,2 52334  53.2173 266.0039 0001524 100.2800 259.8364 15.08830449 92650,6917.91,95.438,540.829,538.72,0.0
